LEMUR-2-AMANDA-SVANTE   
1 48269U 21034B   26068.77637527  .00030872  00000+0  11134-2 0  9996
2 48269  97.5829 144.8625 0002703 205.4721 154.6385 15.28469003265849
STARLINK-36526          
1 67508U 26012R   26068.40623108  .00017039  00000+0  62731-3 0  9994
2 67508  43.0032 315.5476 0001583 256.5628 103.5047 15.27578132  7729
